[
    {
        "Altitude(m)": 610399.5007589267,
        "Argument of Periapsis(deg)": 0.0,
        "Eccentricity": 0.0,
        "Inclination(deg)": 60.0,
        "Latitude(deg)": 52.111257480206596,
        "Longitude(deg)": -87.41569875594558,
        "Mean Anomaly(deg)": -294.5455,
        "RAAN(deg)": 325.0,
        "Satellite Name": "Test1 1434",
        "Satellite Number": 1434,
        "Semi-Major Axis(m)": 6980739.136638005,
        "Time(s)": 0
    },
    {
        "Altitude(m)": 610481.6519562333,
        "Argument of Periapsis(deg)": 0.00010418945913296404,
        "Eccentricity": 0.0,
        "Inclination(deg)": 60.0,
        "Latitude(deg)": 52.470859795786,
        "Longitude(deg)": -86.63356396560776,
        "Mean Anomaly(deg)": -293.9253938545382,
        "RAAN(deg)": 324.99957995086027,
        "Satellite Name": "Test1 1434",
        "Satellite Number": 1434,
        "Semi-Major Axis(m)": 6980739.136638005,
        "Time(s)": 10
    }
]